{
  "type": "FeatureCollection",
  "name": "constraints_context",
  "features": [
    {
      "type": "Feature",
      "id": "CONS-001",
      "properties": {
        "id": "CONS-001",
        "layer": "REGULATORY_CONTROL",
        "scope_id": "coordinated_research_area",
        "name_zh": "统筹研究范围粗略替代边界(仅上下文)",
        "source_type": "agent_inferred_from_public_data",
        "confidence": "medium",
        "geometry_role": "provisional_constraint",
        "official_boundary": false,
        "boundary_precision": "provisional_rough",
        "source_id": "PROVISIONAL-BOUNDARY-TEXT-AND-BBOX",
        "source_title": "依据公告文字四至、约43.6平方公里面积约束和道路名称形成的临时粗略范围",
        "area_sqm_declared": 43600000,
        "area_sqm_calculated": 43609232.558,
        "usage_note": "临时上下文约束,不得作为官方红线或审批依据"
      },
      "geometry": {
        "type": "Polygon",
        "coordinates": [
          [
            [
              116.31885,
              39.938
            ],
            [
              116.36615,
              39.938
            ],
            [
              116.37215,
              39.965
            ],
            [
              116.37215,
              40.027
            ],
            [
              116.33285,
              40.027
            ],
            [
              116.32085,
              40.0
            ],
            [
              116.31285,
              39.965
            ],
            [
              116.31885,
              39.938
            ]
          ]
        ]
      }
    },
    {
      "type": "Feature",
      "id": "CONS-002",
      "properties": {
        "id": "CONS-002",
        "layer": "REGULATORY_CONTROL",
        "scope_id": "key_detailed_design_area",
        "name_zh": "重点区域范围粗略替代边界(仅上下文)",
        "source_type": "agent_inferred_from_public_data",
        "confidence": "medium",
        "geometry_role": "provisional_constraint",
        "official_boundary": false,
        "boundary_precision": "provisional_rough",
        "source_id": "PROVISIONAL-BOUNDARY-TEXT-AND-BBOX",
        "source_title": "依据三处重点片区临时 polygon 汇总形成的重点区域范围",
        "area_sqm_declared": 3684000,
        "area_sqm_calculated": 3692893.005,
        "usage_note": "临时上下文约束,不得作为官方红线或审批依据"
      },
      "geometry": {
        "type": "MultiPolygon",
        "coordinates": [
          [
            [
              [
                116.343,
                40.0075
              ],
              [
                116.354,
                40.0075
              ],
              [
                116.354,
                40.026
              ],
              [
                116.343,
                40.026
              ],
              [
                116.343,
                40.0075
              ]
            ]
          ],
          [
            [
              [
                116.342,
                39.9835
              ],
              [
                116.353,
                39.9835
              ],
              [
                116.353,
                39.9935
              ],
              [
                116.342,
                39.9935
              ],
              [
                116.342,
                39.9835
              ]
            ]
          ],
          [
            [
              [
                116.342,
                39.944
              ],
              [
                116.355,
                39.944
              ],
              [
                116.355,
                39.94984
              ],
              [
                116.342,
                39.94984
              ],
              [
                116.342,
                39.944
              ]
            ]
          ]
        ]
      }
    }
  ]
}
