{
  "type": "FeatureCollection",
  "name": "phasing_design",
  "features": [
    {
      "type": "Feature",
      "id": "PHASE-1",
      "properties": {
        "id": "PHASE-1",
        "layer": "PHASE",
        "source_type": "agent_generated_design",
        "confidence": "medium",
        "geometry_role": "design_proposal",
        "area_sqm_declared": 4306730.991,
        "phase": "phase_1",
        "name_zh": "近期(1-3年):三大重点区+绿脉示范段",
        "design_note_zh": "以三处重点片区和遗址公园活力段为近期示范,轻改造、场景先行"
      },
      "geometry": {
        "type": "MultiPolygon",
        "coordinates": [
          [
            [
              [
                116.34056227958217,
                39.94396074595945
              ],
              [
                116.34040014296616,
                39.949799822182996
              ],
              [
                116.35530001609067,
                39.94988363871534
              ],
              [
                116.35530001033683,
                39.9440436371272
              ],
              [
                116.34056227958217,
                39.94396074595945
              ]
            ]
          ],
          [
            [
              [
                116.34024557616414,
                39.98345893425363
              ],
              [
                116.34089093957387,
                39.993462603654926
              ],
              [
                116.35349353892734,
                39.99353358763284
              ],
              [
                116.3533,
                39.989999999999995
              ],
              [
                116.35381732133423,
                39.98353539113353
              ],
              [
                116.34024557616414,
                39.98345893425363
              ]
            ]
          ],
          [
            [
              [
                116.35426074398407,
                40.00753786785313
              ],
              [
                116.34177157329304,
                40.007467605610074
              ],
              [
                116.34270000000001,
                40.0265
              ],
              [
                116.3553,
                40.0265
              ],
              [
                116.35426074398407,
                40.00753786785313
              ]
            ]
          ]
        ]
      }
    },
    {
      "type": "Feature",
      "id": "PHASE-2",
      "properties": {
        "id": "PHASE-2",
        "layer": "PHASE",
        "source_type": "agent_generated_design",
        "confidence": "medium",
        "geometry_role": "design_proposal",
        "area_sqm_declared": 3449623.864,
        "phase": "phase_2",
        "name_zh": "中期(3-5年):门户与缝合更新",
        "design_note_zh": "南门户、缝合居住区与科教转化区渐进更新"
      },
      "geometry": {
        "type": "MultiPolygon",
        "coordinates": [
          [
            [
              [
                116.34056227958217,
                39.94396074595945
              ],
              [
                116.35530001033683,
                39.9440436371272
              ],
              [
                116.35530000011076,
                39.93904363573655
              ],
              [
                116.34754067621189,
                39.93900022891718
              ],
              [
                116.34070000000001,
                39.93899999999999
              ],
              [
                116.34056227958217,
                39.94396074595945
              ]
            ]
          ],
          [
            [
              [
                116.3401874250797,
                39.957458609778186
              ],
              [
                116.35530001352406,
                39.957543640739466
              ],
              [
                116.35530001609067,
                39.94988363871534
              ],
              [
                116.34040014296616,
                39.949799822182996
              ],
              [
                116.3401874250797,
                39.957458609778186
              ]
            ]
          ],
          [
            [
              [
                116.34169999999999,
                40.006
              ],
              [
                116.34177157329304,
                40.007467605610074
              ],
              [
                116.35426074398407,
                40.00753786785313
              ],
              [
                116.35349353892734,
                39.99353358763284
              ],
              [
                116.34089093957387,
                39.993462603654926
              ],
              [
                116.34169999999999,
                40.006
              ]
            ]
          ]
        ]
      }
    },
    {
      "type": "Feature",
      "id": "PHASE-3",
      "properties": {
        "id": "PHASE-3",
        "layer": "PHASE",
        "source_type": "agent_generated_design",
        "confidence": "medium",
        "geometry_role": "design_proposal",
        "area_sqm_declared": 3654863.829,
        "phase": "phase_3",
        "name_zh": "远期(5-10年):中段走廊系统深化",
        "design_note_zh": "待官方控规与权属条件明确后系统推进"
      },
      "geometry": {
        "type": "Polygon",
        "coordinates": [
          [
            [
              116.3553,
              39.965
            ],
            [
              116.35530001352406,
              39.957543640739466
            ],
            [
              116.3401874250797,
              39.957458609778186
            ],
            [
              116.3397,
              39.97500000000001
            ],
            [
              116.34024557616414,
              39.98345893425363
            ],
            [
              116.35381732133423,
              39.98353539113353
            ],
            [
              116.3553,
              39.965
            ]
          ]
        ]
      }
    }
  ]
}
